{"type": "FeatureCollection", "features": [ {"type": "Feature", "properties": {"norad_id": 66648, "name": "COSMOS 2598 (RODNIK-S 23)", "group": "last-30-days", "lat": -48.60519781465905, "lon": 116.98167823179709, "alt_km": 1496.2706154447696, "timestamp": "2025-12-09T14:52:24.942990+00:00", "meta": {"OBJECT_NAME": "COSMOS 2598 (RODNIK-S 23)", "OBJECT_ID": "2025-273B", "EPOCH": "2025-12-09T07:50:53.357280", "MEAN_MOTION": 12.4286156, "ECCENTRICITY": 0.00072646, "INCLINATION": 82.5025, "RA_OF_ASC_NODE": 288.5722, "ARG_OF_PERICENTER": 259.4711, "MEAN_ANOMALY": 100.555, "EPHEMERIS_TYPE": 0, "CLASSIFICATION_TYPE": "U", "NORAD_CAT_ID": 66648, "ELEMENT_SET_NO": 999, "REV_AT_EPOCH": 171, "BSTAR": -7.2490147e-05, "MEAN_MOTION_DOT": 0, "MEAN_MOTION_DDOT": 0}, "tle": {"line1": "1 66648U 25273B   25343.32700645  .00000000  00000+0 -72490-4 0  9999", "line2": "2 66648  82.5025 288.5722 0007264 259.4711 100.5550 12.42861560  1716"}}, "geometry": {"type": "Point", "coordinates": [116.98167823179709, -48.60519781465905]}}, {"type": "Feature", "properties": {"norad_id": 66649, "name": "COSMOS 2599 (RODNIK-S 24)", "group": "last-30-days", "lat": -11.981865694791644, "lon": 110.00317283965765, "alt_km": 1506.3941304438713, "timestamp": "2025-12-09T14:52:24.943002+00:00", "meta": {"OBJECT_NAME": "COSMOS 2599 (RODNIK-S 24)", "OBJECT_ID": "2025-273C", "EPOCH": "2025-12-09T06:06:24.429024", "MEAN_MOTION": 12.41671807, "ECCENTRICITY": 0.00081776, "INCLINATION": 82.5024, "RA_OF_ASC_NODE": 288.6283, "ARG_OF_PERICENTER": 307.9769, "MEAN_ANOMALY": 52.0571, "EPHEMERIS_TYPE": 0, "CLASSIFICATION_TYPE": "U", "NORAD_CAT_ID": 66649, "ELEMENT_SET_NO": 999, "REV_AT_EPOCH": 170, "BSTAR": 0.00015946238, "MEAN_MOTION_DOT": 3.2e-07, "MEAN_MOTION_DDOT": 0}, "tle": {"line1": "1 66649U 25273C   25343.25444941  .00000032  00000+0  15946-3 0  9992", "line2": "2 66649  82.5024 288.6283 0008177 307.9769  52.0571 12.41671807  1700"}}, "geometry": {"type": "Point", "coordinates": [110.00317283965765, -11.981865694791644]}}, {"type": "Feature", "properties": {"norad_id": 66650, "name": "BEE-1000", "group": "last-30-days", "lat": 70.52364255158388, "lon": 113.4779720316262, "alt_km": 592.6364270141203, "timestamp": "2025-12-09T14:52:24.943015+00:00", "meta": {"OBJECT_NAME": "BEE-1000", "OBJECT_ID": "2025-274A", "EPOCH": "2025-12-09T06:20:27.921120", "MEAN_MOTION": 14.91642041, "ECCENTRICITY": 0.00104404, "INCLINATION": 97.7386, "RA_OF_ASC_NODE": 270.5157, "ARG_OF_PERICENTER": 264.9451, "MEAN_ANOMALY": 95.0576, "EPHEMERIS_TYPE": 0, "CLASSIFICATION_TYPE": "U", "NORAD_CAT_ID": 66650, "ELEMENT_SET_NO": 999, "REV_AT_EPOCH": 188, "BSTAR": 0.00027960748, "MEAN_MOTION_DOT": 2.756e-05, "MEAN_MOTION_DDOT": 0}, "tle": {"line1": "1 66650U 25274A   25343.26421205  .00002756  00000+0  27961-3 0  9999", "line2": "2 66650  97.7386 270.5157 0010440 264.9451  95.0576 14.91642041  1883"}}, "geometry": {"type": "Point", "coordinates": [113.4779720316262, 70.52364255158388]}}, {"type": "Feature", "properties": {"norad_id": 66651, "name": "2025-274B", "group": "last-30-days", "lat": 67.23225934017849, "lon": 109.76928881818247, "alt_km": 592.4998402617812, "timestamp": "2025-12-09T14:52:24.943025+00:00", "meta": {"OBJECT_NAME": "2025-274B", "OBJECT_ID": "2025-274B", "EPOCH": "2025-12-09T06:19:32.979360", "MEAN_MOTION": 14.91754249, "ECCENTRICITY": 0.00107478, "INCLINATION": 97.7381, "RA_OF_ASC_NODE": 270.5158, "ARG_OF_PERICENTER": 264.1408, "MEAN_ANOMALY": 95.8586, "EPHEMERIS_TYPE": 0, "CLASSIFICATION_TYPE": "U", "NORAD_CAT_ID": 66651, "ELEMENT_SET_NO": 999, "REV_AT_EPOCH": 188, "BSTAR": 0.00056129482, "MEAN_MOTION_DOT": 5.606e-05, "MEAN_MOTION_DDOT": 0}, "tle": {"line1": "1 66651U 25274B   25343.26357615  .00005606  00000+0  56129-3 0  9998", "line2": "2 66651  97.7381 270.5158 0010747 264.1408  95.8586 14.91754249  1887"}}, "geometry": {"type": "Point", "coordinates": [109.76928881818247, 67.23225934017849]}}, {"type": "Feature", "properties": {"norad_id": 66652, "name": "2025-274C", "group": "last-30-days", "lat": 61.03181736614042, "lon": 105.08924263101402, "alt_km": 592.5743643311089, "timestamp": "2025-12-09T14:52:24.943035+00:00", "meta": {"OBJECT_NAME": "2025-274C", "OBJECT_ID": "2025-274C", "EPOCH": "2025-12-09T06:17:50.661024", "MEAN_MOTION": 14.91872383, "ECCENTRICITY": 0.00104134, "INCLINATION": 97.7388, "RA_OF_ASC_NODE": 270.5182, "ARG_OF_PERICENTER": 271.0321, "MEAN_ANOMALY": 88.9705, "EPHEMERIS_TYPE": 0, "CLASSIFICATION_TYPE": "U", "NORAD_CAT_ID": 66652, "ELEMENT_SET_NO": 999, "REV_AT_EPOCH": 188, "BSTAR": 0.0003647652, "MEAN_MOTION_DOT": 3.633e-05, "MEAN_MOTION_DDOT": 0}, "tle": {"line1": "1 66652U 25274C   25343.26239191  .00003633  00000+0  36477-3 0  9999", "line2": "2 66652  97.7388 270.5182 0010413 271.0321  88.9705 14.91872383  1889"}}, "geometry": {"type": "Point", "coordinates": [105.08924263101402, 61.03181736614042]}}, {"type": "Feature", "properties": {"norad_id": 66653, "name": "2025-274D", "group": "last-30-days", "lat": 60.74210687745926, "lon": 104.91708763365176, "alt_km": 592.8234345977935, "timestamp": "2025-12-09T14:52:24.943045+00:00", "meta": {"OBJECT_NAME": "2025-274D", "OBJECT_ID": "2025-274D", "EPOCH": "2025-12-09T06:17:45.528000", "MEAN_MOTION": 14.91876438, "ECCENTRICITY": 0.00112848, "INCLINATION": 97.7386, "RA_OF_ASC_NODE": 270.518, "ARG_OF_PERICENTER": 266.9317, "MEAN_ANOMALY": 93.0611, "EPHEMERIS_TYPE": 0, "CLASSIFICATION_TYPE": "U", "NORAD_CAT_ID": 66653, "ELEMENT_SET_NO": 999, "REV_AT_EPOCH": 188, "BSTAR": 0.00037130229, "MEAN_MOTION_DOT": 3.701e-05, "MEAN_MOTION_DDOT": 0}, "tle": {"line1": "1 66653U 25274D   25343.26233250  .00003701  00000+0  37130-3 0  9993", "line2": "2 66653  97.7386 270.5180 0011284 266.9317  93.0611 14.91876438  1889"}}, "geometry": {"type": "Point", "coordinates": [104.91708763365176, 60.74210687745926]}}, {"type": "Feature", "properties": {"norad_id": 66654, "name": "JACK E", "group": "last-30-days", "lat": 53.26736631939674, "lon": 101.37225457288783, "alt_km": 593.0124194724749, "timestamp": "2025-12-09T14:52:24.943055+00:00", "meta": {"OBJECT_NAME": "JACK E", "OBJECT_ID": "2025-274E", "EPOCH": "2025-12-09T06:15:44.792640", "MEAN_MOTION": 14.92051596, "ECCENTRICITY": 0.00118673, "INCLINATION": 97.7389, "RA_OF_ASC_NODE": 270.5204, "ARG_OF_PERICENTER": 268.5487, "MEAN_ANOMALY": 91.4373, "EPHEMERIS_TYPE": 0, "CLASSIFICATION_TYPE": "U", "NORAD_CAT_ID": 66654, "ELEMENT_SET_NO": 999, "REV_AT_EPOCH": 188, "BSTAR": 0.00043302811, "MEAN_MOTION_DOT": 4.345e-05, "MEAN_MOTION_DDOT": 0}, "tle": {"line1": "1 66654U 25274E   25343.26093510  .00004345  00000+0  43303-3 0  9991", "line2": "2 66654  97.7389 270.5204 0011867 268.5487  91.4373 14.92051596  1881"}}, "geometry": {"type": "Point", "coordinates": [101.37225457288783, 53.26736631939674]}}, {"type": "Feature", "properties": {"norad_id": 66655, "name": "2025-274F", "group": "last-30-days", "lat": 42.32550782407485, "lon": 97.98401810450277, "alt_km": 590.4454188385225, "timestamp": "2025-12-09T14:52:24.943065+00:00", "meta": {"OBJECT_NAME": "2025-274F", "OBJECT_ID": "2025-274F", "EPOCH": "2025-12-08T18:57:10.718496", "MEAN_MOTION": 14.92504145, "ECCENTRICITY": 0.00054909, "INCLINATION": 97.7329, "RA_OF_ASC_NODE": 270.0601, "ARG_OF_PERICENTER": 323.8556, "MEAN_ANOMALY": 36.2292, "EPHEMERIS_TYPE": 0, "CLASSIFICATION_TYPE": "U", "NORAD_CAT_ID": 66655, "ELEMENT_SET_NO": 999, "REV_AT_EPOCH": 181, "BSTAR": 0.001516128, "MEAN_MOTION_DOT": 0.00015539, "MEAN_MOTION_DDOT": 0}, "tle": {"line1": "1 66655U 25274F   25342.78970739  .00015539  00000+0  15161-2 0  9992", "line2": "2 66655  97.7329 270.0601 0005490 323.8556  36.2292 14.92504145  1812"}}, "geometry": {"type": "Point", "coordinates": [97.98401810450277, 42.32550782407485]}}, {"type": "Feature", "properties": {"norad_id": 66656, "name": "2025-274G", "group": "last-30-days", "lat": 44.968081314619845, "lon": 98.6826217484552, "alt_km": 593.2468231331959, "timestamp": "2025-12-09T14:52:24.943075+00:00", "meta": {"OBJECT_NAME": "2025-274G", "OBJECT_ID": "2025-274G", "EPOCH": "2025-12-09T06:13:32.018304", "MEAN_MOTION": 14.92239963, "ECCENTRICITY": 0.00124937, "INCLINATION": 97.7386, "RA_OF_ASC_NODE": 270.5219, "ARG_OF_PERICENTER": 270.3562, "MEAN_ANOMALY": 89.6225, "EPHEMERIS_TYPE": 0, "CLASSIFICATION_TYPE": "U", "NORAD_CAT_ID": 66656, "ELEMENT_SET_NO": 999, "REV_AT_EPOCH": 188, "BSTAR": 0.00045690294, "MEAN_MOTION_DOT": 4.611e-05, "MEAN_MOTION_DDOT": 0}, "tle": {"line1": "1 66656U 25274G   25343.25939836  .00004611  00000+0  45690-3 0  9999", "line2": "2 66656  97.7386 270.5219 0012493 270.3562  89.6225 14.92239963  1888"}}, "geometry": {"type": "Point", "coordinates": [98.6826217484552, 44.968081314619845]}}, {"type": "Feature", "properties": {"norad_id": 66657, "name": "SPIRONE", "group": "last-30-days", "lat": 36.73375465724598, "lon": 96.70344215746417, "alt_km": 594.1313967307879, "timestamp": "2025-12-09T14:52:24.943087+00:00", "meta": {"OBJECT_NAME": "SPIRONE", "OBJECT_ID": "2025-274H", "EPOCH": "2025-12-08T20:32:05.028864", "MEAN_MOTION": 14.92414576, "ECCENTRICITY": 0.0010976, "INCLINATION": 97.7386, "RA_OF_ASC_NODE": 270.128, "ARG_OF_PERICENTER": 290.7866, "MEAN_ANOMALY": 69.2177, "EPHEMERIS_TYPE": 0, "CLASSIFICATION_TYPE": "U", "NORAD_CAT_ID": 66657, "ELEMENT_SET_NO": 999, "REV_AT_EPOCH": 182, "BSTAR": 0.00036917, "MEAN_MOTION_DOT": 3.729e-05, "MEAN_MOTION_DDOT": 0}, "tle": {"line1": "1 66657U 25274H   25342.85561376  .00003729  00000+0  36917-3 0  9996", "line2": "2 66657  97.7386 270.1280 0010976 290.7866  69.2177 14.92414576  1829"}}, "geometry": {"type": "Point", "coordinates": [96.70344215746417, 36.73375465724598]}}]}